KUIPER-00513            
1 69598U 26140G   26193.60135034  .00013806  00000+0  37161-3 0  9991
2 69598  51.8814 275.8078 0007466 328.9554  31.0991 15.38121124  5143
KUIPER-00516            
1 69599U 26140H   26193.60870001  .00013436  00000+0  36856-3 0  9991
2 69599  51.8798 275.8479 0007004 345.9177  14.1614 15.37561991  5141
KUIPER-00517            
1 69600U 26140J   26193.58727652  .00016857  00000+0  44128-3 0  9995
2 69600  51.8775 275.7100 0010576 281.2681  78.7118 15.38784525  5145
KUIPER-00520            
1 69601U 26140K   26193.54466667  .00016855  00000+0  45865-3 0  9995
2 69601  51.8829 276.1796 0006893 347.2646  12.8166 15.37615748  5133
KUIPER-00522            
1 69602U 26140L   26193.45385607  .00016196  00000+0  42640-3 0  9996
2 69602  51.8796 276.3223 0013053 258.0120 101.9404 15.38612345  5121
KUIPER-00528            
1 69603U 26140M   26193.61209804  .00013920  00000+0  38264-3 0  9998
2 69603  51.8788 275.8726 0006373 354.1957   5.8955 15.37466391  5140
KUIPER-00532            
1 69604U 26140N   26193.55679698  .00009751  00000+0  27904-3 0  9990
2 69604  51.8801 276.2470 0005509  24.5719 335.5529 15.36593902  5139
KUIPER-00533            
1 69605U 26140P   26193.59757521  .00030982  00000+0  81563-3 0  9998
2 69605  51.8808 275.7759 0007949 316.7126  43.3236 15.38248717  5142
KUIPER-00534            
1 69606U 26140Q   26193.44887726  .00024701  00000+0  64263-3 0  9994
2 69606  51.8820 276.2971 0012872 267.2445  92.7069 15.38687944  5123
KUIPER-00537            
1 69607U 26140R   26192.59971490  .00011929  00000+0  36403-3 0  9995
2 69607  51.8811 281.0851 0011006  42.8840 317.3002 15.34296234  4989
KUIPER-00538            
1 69608U 26140S   26193.54233288  .00009408  00000+0  26028-3 0  9999
2 69608  51.8813 276.1626 0006912 334.9005  25.1645 15.37691608  5137
KUIPER-00540            
1 69609U 26140T   26193.61796135  .00012296  00000+0  34513-3 0  9990
2 69609  51.8824 275.9170 0006735  14.4196 345.6981 15.36933306  5142
KUIPER-00541            
1 69610U 26140U   26194.00002315  .00023048  00000+0  60766-3 0  9992
2 69610  51.8815 273.8375 0007622 314.9745 115.9537 15.38372884  5125
KUIPER-00542            
1 69611U 26140V   26193.59603860  .00025895  00000+0  68382-3 0  9992
2 69611  51.8789 275.7678 0007499 296.9324  63.0896 15.38254670  5142
KUIPER-00543            
1 69612U 26140W   26193.49225238  .00017002  00000+0  47470-3 0  9997
2 69612  51.8787 276.5601 0007799  25.6702 334.4670 15.36803491  5128
KUIPER-00544            
1 69613U 26140X   26193.60033147  .00012564  00000+0  33899-3 0  9995
2 69613  51.8786 275.7960 0006694 311.0790  48.9618 15.38141343  5143
KUIPER-00546            
1 69614U 26140Y   26193.44950392  .00018442  00000+0  48034-3 0  9996
2 69614  51.8781 276.2891 0013714 257.6373 102.3080 15.38834385  5122
KUIPER-00547            
1 69615U 26140Z   26193.52908480  .00015081  00000+0  40772-3 0  9994
2 69615  51.8817 276.0782 0010954 279.3910  80.5839 15.37875853  5135
KUIPER-00549            
1 69616U 26140AA  26193.48349859  .00019828  00000+0  54271-3 0  9991
2 69616  51.8805 276.5058 0007376   5.5176 354.5891 15.37312837  5120
KUIPER-00550            
1 69617U 26140AB  26194.16668980  .00047909  00000+0  15270-2 0  9993
2 69617  51.8786 273.6786 0007578  57.0013 254.0070 15.32039313  4471
KUIPER-00551            
1 69618U 26140AC  26193.45656904  .00022165  00000+0  58361-3 0  9994
2 69618  51.8784 276.3279 0012243 261.7916  98.1683 15.38393313  5127
KUIPER-00554            
1 69619U 26140AD  26193.26741910  .00010028  00000+0  27433-3 0  9997
2 69619  51.8780 277.3159 0011177 281.0431  78.9299 15.37928096  5090
KUIPER-00555            
1 69620U 26140AE  26193.33335648 -.00014303  00000+0 -36700-3 0  9993
2 69620  51.8816 276.9742 0011304 267.6743 112.7047 15.37916666  4573
KUIPER-00556            
1 69621U 26140AF  26193.84906220 -.00181525  00000+0 -48965-2 0  9996
2 69621  51.8804 274.4699 0010620 249.9236 110.0608 15.37854962  5187
KUIPER-00557            
1 69622U 26140AG  26193.53244196  .00011904  00000+0  32775-3 0  9994
2 69622  51.8806 276.0995 0009930 291.6593  68.3336 15.37543982  5134
KUIPER-00560            
1 69623U 26140AH  26194.00002315  .00024446  00000+0  63451-3 0  9993
2 69623  51.8782 273.7342 0008770 297.2270 179.4007 15.38808935  4785
KUIPER-00561            
1 69624U 26140AJ  26192.74769253 -.00566727  00000+0 -15961-1 0  9990
2 69624  51.8826 279.8412 0009245 285.6749  74.3218 15.38107852  5014
KUIPER-00564            
1 69625U 26140AK  26193.59393142  .00010975  00000+0  30553-3 0  9998
2 69625  51.8804 275.7591 0009399 289.5457  70.4514 15.37292702  5141
KUIPER-00567            
1 69626U 26140AL  26193.45707103  .00013100  00000+0  35168-3 0  9990
2 69626  51.8803 276.3363 0012746 268.2511  91.7016 15.38204497  5126
KUIPER-00573            
1 69627U 26140AM  26193.60115949  .00012162  00000+0  33589-3 0  9991
2 69627  51.8785 275.8009 0009290 276.7362  83.2567 15.37431851  5149
